[Satellite]
VERSION=1.1
NAME=FENGYUN 2H
NICKNAME=FENGYUN 2H
TLE1=1 43491U 18050A   20155.42961773 -.00000134  00000-0  00000-0 0  9996
TLE2=2 43491   0.6903 274.6805 0003199 217.7299 354.0028  1.00272504  7406
STATUS=0
